{
  "type": "FeatureCollection",
  "features": [
    {
      "type": "Feature",
      "properties": {
        "norad_id": 37295,
        "name": "COSMOS 2251 DEB",
        "group": "cosmos-2251-debris",
        "lat": -27.740874606433476,
        "lon": 81.16227369811439,
        "alt_km": 705.8612927657323,
        "timestamp": "2025-12-27T20:30:59.677533+00:00",
        "meta_object_name": "COSMOS 2251 DEB",
        "meta_object_id": "1993-036BJK",
        "meta_epoch": "2025-12-25T16:46:30.932832",
        "meta_mean_motion": 14.65312772,
        "meta_eccentricity": 0.00441488,
        "meta_inclination": 74.006,
        "meta_ra_of_asc_node": 256.6411,
        "meta_arg_of_pericenter": 71.87,
        "meta_mean_anomaly": 288.7269,
        "meta_ephemeris_type": 0,
        "meta_classification_type": "U",
        "meta_norad_cat_id": 37295,
        "meta_element_set_no": 999,
        "meta_rev_at_epoch": 82494,
        "meta_bstar": 0.00055089823,
        "meta_mean_motion_dot": 2.985e-05,
        "meta_mean_motion_ddot": 0,
        "tle_line1": "1 37295U 93036BJK 25359.69896913  .00002985  00000+0  55090-3 0  9997",
        "tle_line2": "2 37295  74.0060 256.6411 0044148  71.8700 288.7269 14.65312772824941"
      },
      "geometry": {
        "type": "Point",
        "coordinates": [
          81.16227369811439,
          -27.740874606433476
        ]
      }
    },
    {
      "type": "Feature",
      "properties": {
        "norad_id": 37305,
        "name": "COSMOS 2251 DEB",
        "group": "cosmos-2251-debris",
        "lat": -26.453889617614863,
        "lon": 90.75972030101792,
        "alt_km": 741.8652023259401,
        "timestamp": "2025-12-27T20:30:59.677543+00:00",
        "meta_object_name": "COSMOS 2251 DEB",
        "meta_object_id": "1993-036BJV",
        "meta_epoch": "2025-12-23T00:11:55.974336",
        "meta_mean_motion": 14.36169187,
        "meta_eccentricity": 0.00495961,
        "meta_inclination": 73.8701,
        "meta_ra_of_asc_node": 271.4675,
        "meta_arg_of_pericenter": 230.2466,
        "meta_mean_anomaly": 129.4312,
        "meta_ephemeris_type": 0,
        "meta_classification_type": "U",
        "meta_norad_cat_id": 37305,
        "meta_element_set_no": 999,
        "meta_rev_at_epoch": 67014,
        "meta_bstar": 0.00056579218,
        "meta_mean_motion_dot": 1.645e-05,
        "meta_mean_motion_ddot": 0,
        "tle_line1": "1 37305U 93036BJV 25357.00828674  .00001645  00000+0  56579-3 0  9996",
        "tle_line2": "2 37305  73.8701 271.4675 0049596 230.2466 129.4312 14.36169187670140"
      },
      "geometry": {
        "type": "Point",
        "coordinates": [
          90.75972030101792,
          -26.453889617614863
        ]
      }
    },
    {
      "type": "Feature",
      "properties": {
        "norad_id": 37312,
        "name": "COSMOS 2251 DEB",
        "group": "cosmos-2251-debris",
        "lat": 66.68830948961454,
        "lon": -142.3838042205211,
        "alt_km": 743.2312606490414,
        "timestamp": "2025-12-27T20:30:59.677554+00:00",
        "meta_object_name": "COSMOS 2251 DEB",
        "meta_object_id": "1993-036BKC",
        "meta_epoch": "2025-12-26T04:20:06.486432",
        "meta_mean_motion": 14.46165995,
        "meta_eccentricity": 0.00184518,
        "meta_inclination": 74.0294,
        "meta_ra_of_asc_node": 179.0901,
        "meta_arg_of_pericenter": 281.316,
        "meta_mean_anomaly": 78.5925,
        "meta_ephemeris_type": 0,
        "meta_classification_type": "U",
        "meta_norad_cat_id": 37312,
        "meta_element_set_no": 999,
        "meta_rev_at_epoch": 86358,
        "meta_bstar": 0.00042518339,
        "meta_mean_motion_dot": 1.496e-05,
        "meta_mean_motion_ddot": 0,
        "tle_line1": "1 37312U 93036BKC 25360.18063063  .00001496  00000+0  42518-3 0  9992",
        "tle_line2": "2 37312  74.0294 179.0901 0018451 281.3160  78.5925 14.46165995863587"
      },
      "geometry": {
        "type": "Point",
        "coordinates": [
          -142.3838042205211,
          66.68830948961454
        ]
      }
    },
    {
      "type": "Feature",
      "properties": {
        "norad_id": 37316,
        "name": "COSMOS 2251 DEB",
        "group": "cosmos-2251-debris",
        "lat": 34.60644348626554,
        "lon": 1.9699532510441538,
        "alt_km": 559.5289194263032,
        "timestamp": "2025-12-27T20:30:59.677564+00:00",
        "meta_object_name": "COSMOS 2251 DEB",
        "meta_object_id": "1993-036BKG",
        "meta_epoch": "2025-12-26T23:28:46.451424",
        "meta_mean_motion": 14.95118228,
        "meta_eccentricity": 0.0029677,
        "meta_inclination": 74.0198,
        "meta_ra_of_asc_node": 352.3343,
        "meta_arg_of_pericenter": 55.5452,
        "meta_mean_anomaly": 304.8529,
        "meta_ephemeris_type": 0,
        "meta_classification_type": "U",
        "meta_norad_cat_id": 37316,
        "meta_element_set_no": 999,
        "meta_rev_at_epoch": 86356,
        "meta_bstar": 0.0027326,
        "meta_mean_motion_dot": 0.00030332,
        "meta_mean_motion_ddot": 0,
        "tle_line1": "1 37316U 93036BKG 25360.97831541  .00030332  00000+0  27326-2 0  9997",
        "tle_line2": "2 37316  74.0198 352.3343 0029677  55.5452 304.8529 14.95118228863561"
      },
      "geometry": {
        "type": "Point",
        "coordinates": [
          1.9699532510441538,
          34.60644348626554
        ]
      }
    },
    {
      "type": "Feature",
      "properties": {
        "norad_id": 37320,
        "name": "COSMOS 2251 DEB",
        "group": "cosmos-2251-debris",
        "lat": 23.718568747238887,
        "lon": -164.3147316122897,
        "alt_km": 644.3386344263636,
        "timestamp": "2025-12-27T20:30:59.677574+00:00",
        "meta_object_name": "COSMOS 2251 DEB",
        "meta_object_id": "1993-036BKL",
        "meta_epoch": "2025-12-22T20:16:00.405696",
        "meta_mean_motion": 14.78886663,
        "meta_eccentricity": 0.0046926,
        "meta_inclination": 74.0442,
        "meta_ra_of_asc_node": 198.3073,
        "meta_arg_of_pericenter": 283.335,
        "meta_mean_anomaly": 76.2596,
        "meta_ephemeris_type": 0,
        "meta_classification_type": "U",
        "meta_norad_cat_id": 37320,
        "meta_element_set_no": 999,
        "meta_rev_at_epoch": 66296,
        "meta_bstar": 0.000787018,
        "meta_mean_motion_dot": 5.877e-05,
        "meta_mean_motion_ddot": 0,
        "tle_line1": "1 37320U 93036BKL 25356.84444914  .00005877  00000+0  78702-3 0  9998",
        "tle_line2": "2 37320  74.0442 198.3073 0046926 283.3350  76.2596 14.78886663662961"
      },
      "geometry": {
        "type": "Point",
        "coordinates": [
          -164.3147316122897,
          23.718568747238887
        ]
      }
    },
    {
      "type": "Feature",
      "properties": {
        "norad_id": 37326,
        "name": "COSMOS 2251 DEB",
        "group": "cosmos-2251-debris",
        "lat": 11.435930823022362,
        "lon": -50.91527161590288,
        "alt_km": 668.6804928280962,
        "timestamp": "2025-12-27T20:30:59.677584+00:00",
        "meta_object_name": "COSMOS 2251 DEB",
        "meta_object_id": "1993-036BKS",
        "meta_epoch": "2025-12-18T14:41:59.918784",
        "meta_mean_motion": 14.6160351,
        "meta_eccentricity": 0.00547059,
        "meta_inclination": 74.0257,
        "meta_ra_of_asc_node": 323.4491,
        "meta_arg_of_pericenter": 90.7075,
        "meta_mean_anomaly": 270.0361,
        "meta_ephemeris_type": 0,
        "meta_classification_type": "U",
        "meta_norad_cat_id": 37326,
        "meta_element_set_no": 999,
        "meta_rev_at_epoch": 85569,
        "meta_bstar": 0.00040097011,
        "meta_mean_motion_dot": 2.005e-05,
        "meta_mean_motion_ddot": 0,
        "tle_line1": "1 37326U 93036BKS 25352.61249906  .00002005  00000+0  40097-3 0  9995",
        "tle_line2": "2 37326  74.0257 323.4491 0054705  90.7075 270.0361 14.61603510855692"
      },
      "geometry": {
        "type": "Point",
        "coordinates": [
          -50.91527161590288,
          11.435930823022362
        ]
      }
    },
    {
      "type": "Feature",
      "properties": {
        "norad_id": 37330,
        "name": "COSMOS 2251 DEB",
        "group": "cosmos-2251-debris",
        "lat": -70.20009531050906,
        "lon": 138.98977251771586,
        "alt_km": 735.321683353648,
        "timestamp": "2025-12-27T20:30:59.677594+00:00",
        "meta_object_name": "COSMOS 2251 DEB",
        "meta_object_id": "1993-036BKW",
        "meta_epoch": "2025-12-27T11:07:01.200576",
        "meta_mean_motion": 14.59581257,
        "meta_eccentricity": 0.0056697,
        "meta_inclination": 74.0175,
        "meta_ra_of_asc_node": 266.98,
        "meta_arg_of_pericenter": 111.1938,
        "meta_mean_anomaly": 249.5298,
        "meta_ephemeris_type": 0,
        "meta_classification_type": "U",
        "meta_norad_cat_id": 37330,
        "meta_element_set_no": 999,
        "meta_rev_at_epoch": 86583,
        "meta_bstar": 0.00032747,
        "meta_mean_motion_dot": 1.562e-05,
        "meta_mean_motion_ddot": 0,
        "tle_line1": "1 37330U 93036BKW 25361.46320834  .00001562  00000+0  32747-3 0  9993",
        "tle_line2": "2 37330  74.0175 266.9800 0056697 111.1938 249.5298 14.59581257865836"
      },
      "geometry": {
        "type": "Point",
        "coordinates": [
          138.98977251771586,
          -70.20009531050906
        ]
      }
    }
  ]
}